EXOCUBE                 
1 40380U 15003E   17346.48319134  .00001301  00000-0  63602-4 0  9994
2 40380  99.1169 201.4800 0144649 146.0561 215.0024 15.12092902157736
